[{"OBJECT_NAME":"SPOT 6","OBJECT_ID":"2012-047A","EPOCH":"2026-03-09T22:20:19.799808","MEAN_MOTION":14.58541829,"ECCENTRICITY":0.00015044,"INCLINATION":98.2215,"RA_OF_ASC_NODE":137.359,"ARG_OF_PERICENTER":93.8151,"MEAN_ANOMALY":266.322,"EPHEMERIS_TYPE":0,"CLASSIFICATION_TYPE":"U","NORAD_CAT_ID":38755,"ELEMENT_SET_NO":999,"REV_AT_EPOCH":71858,"BSTAR":8.0762181e-5,"MEAN_MOTION_DOT":3.29e-6,"MEAN_MOTION_DDOT":0},{"OBJECT_NAME":"DELTA 1 DEB [YO]","OBJECT_ID":"1962-002B","EPOCH":"2026-03-09T01:48:55.596672","MEAN_MOTION":14.40688006,"ECCENTRICITY":0.0127302,"INCLINATION":48.1464,"RA_OF_ASC_NODE":79.3022,"ARG_OF_PERICENTER":6.5503,"MEAN_ANOMALY":353.7021,"EPHEMERIS_TYPE":0,"CLASSIFICATION_TYPE":"U","NORAD_CAT_ID":227,"ELEMENT_SET_NO":999,"REV_AT_EPOCH":32986,"BSTAR":0.0002156704,"MEAN_MOTION_DOT":5.88e-6,"MEAN_MOTION_DDOT":0}]
